ONEWEB-0509             
1 54127U 22138Q   23352.92571235 -.00000025  00000+0 -95237-4 0  9992
2 54127  87.9191 126.3561 0001512 112.6394 247.4899 13.19724419 56617
ONEWEB-0510             
1 54128U 22138R   23352.85305645  .00000124  00000+0  27288-3 0  9993
2 54128  87.9254  95.8314 0001996 116.6422 243.4916 13.20771527 58988
ONEWEB-0511             
1 54129U 22138S   23352.92254829  .00000001  00000+0 -30181-4 0  9991
2 54129  87.9192 126.3585 0001192  97.6907 262.4361 13.19728165 56648
ONEWEB-0512             
1 54130U 22138T   23352.91465527  .00000048  00000+0  88260-4 0  9992
2 54130  87.9201 126.3615 0001276 125.0397 235.0855 13.19724116 56610
ONEWEB-0513             
1 54131U 22138U   23352.88543263  .00000085  00000+0  17932-3 0  9991
2 54131  87.9190 126.3673 0000927 124.8204 235.3016 13.19727401 56496
ONEWEB-0514             
1 54132U 22138V   23352.85463303  .00000066  00000+0  13302-3 0  9991
2 54132  87.9190 126.3748 0001453  97.5564 262.5734 13.19725911 56628
ONEWEB-0515             
1 54133U 22138W   23352.84045068  .00000432  00000+0  10299-2 0  9993
2 54133  87.9203  95.8256 0002946 104.2109 255.9351 13.20770954 59002
ONEWEB-0516             
1 54134U 22138X   23352.90517149  .00000059  00000+0  11425-3 0  9993
2 54134  87.9200 126.3639 0001575 109.3585 250.7718 13.19727107 56632
